ONEWEB-0403             
1 50483U 21132Q   25145.46380660  .00000044  00000+0  77677-4 0  9994
2 50483  87.9161  52.5046 0002053  76.7613 283.3748 13.18685231170490
ONEWEB-0404             
1 50484U 21132R   25145.59130596 -.00000449  00000+0 -13026-2 0  9997
2 50484  87.8834  98.3302 0002300  74.2423 285.8959 13.11418434164897
ONEWEB-0405             
1 50485U 21132S   25145.47960998  .00000077  00000+0  16181-3 0  9993
2 50485  87.9154  52.4905 0001703  71.1210 289.0107 13.18686111170894
ONEWEB-0406             
1 50486U 21132T   25145.46855157  .00000001  00000+0 -28976-4 0  9997
2 50486  87.9162  52.5126 0002534  77.9365 282.2051 13.18684730170526
ONEWEB-0407             
1 50487U 21132U   25145.46222203  .00000069  00000+0  14276-3 0  9998
2 50487  87.9161  52.4999 0001867  74.1056 286.0282 13.18685541170469
ONEWEB-0409             
1 50488U 21132V   25145.58961712 -.00000568  00000+0 -16387-2 0  9997
2 50488  87.8826  98.2973 0002374  79.8828 280.2568 13.11417443164788
ONEWEB-0412             
1 50489U 21132W   25145.45114832  .00000095  00000+0  20888-3 0  9992
2 50489  87.9155  52.5169 0001571  71.6756 288.4547 13.18685979170550
ONEWEB-0413             
1 50490U 21132X   25145.45590150  .00000093  00000+0  20224-3 0  9997
2 50490  87.9163  52.5288 0001579  76.2127 283.9180 13.18685260170493
